NORAD_CAT_ID,OBJECT_NAME,OBJECT_TYPE,EPOCH,MEAN_MOTION,ECCENTRICITY,INCLINATION,RA_OF_ASC_NODE,ARG_OF_PERICENTER,MEAN_ANOMALY,BSTAR,MEAN_MOTION_DOT,MEAN_MOTION_DDOT,TLE_LINE0,TLE_LINE1,TLE_LINE2,SEMIMAJOR_AXIS,PERIOD,APOGEE,PERIGEE,DECAYED
49734.0,STARLINK-3238,PAYLOAD,2023-04-18 16:02:42,15.08851055,0.0001258,53.2162,209.8146,77.0002,283.113,2.5959e-05,1.25e-06,0.0,0 STARLINK-3238,1 49734U 21115L   23108.66854397  .00000125  00000-0  25959-4 0  9991,2 49734  53.2162 209.8146 0001258  77.0002 283.1130 15.08851055 77224,6917.847,95.437,540.582,538.841,0.0
49734.0,STARLINK-3238,PAYLOAD,2023-04-19 06:21:11,15.08840137,0.0001226,53.2178,207.1324,97.3865,262.7266,-5.6702e-06,-3.78e-06,0.0,0 STARLINK-3238,1 49734U 21115L   23109.26471198 -.00000378  00000-0 -56702-5 0  9995,2 49734  53.2178 207.1324 0001226  97.3865 262.7266 15.08840137 77319,6917.88,95.438,540.593,538.897,0.0
49734.0,STARLINK-3238,PAYLOAD,2023-04-19 12:42:43,15.08838369,0.0001542,53.2165,205.9474,64.6065,295.5087,9.4805e-05,1.221e-05,0.0,0 STARLINK-3238,1 49734U 21115L   23109.52967166  .00001221  00000-0  94805-4 0  9990,2 49734  53.2165 205.9474 0001542  64.6065 295.5087 15.08838369 76247,6917.885,95.438,540.817,538.684,0.0
49734.0,STARLINK-3238,PAYLOAD,2023-04-19 23:50:24,15.08850859,0.0001625,53.2168,203.8648,70.9987,289.1182,6.7294e-05,7.83e-06,0.0,0 STARLINK-3238,1 49734U 21115L   23109.99334278  .00000783  00000-0  67294-4 0  9997,2 49734  53.2168 203.8648 0001625  70.9987 289.1182 15.08850859 77429,6917.847,95.437,540.836,538.588,0.0
49734.0,STARLINK-3238,PAYLOAD,2023-04-20 09:22:43,15.08846868,0.0001283,53.2169,202.0788,97.068,263.0458,3.298e-06,-2.35e-06,0.0,0 STARLINK-3238,1 49734U 21115L   23110.39078656 -.00000235  00000-0  32980-5 0  9996,2 49734  53.2169 202.0788 0001283  97.0680 263.0458 15.08846868 76371,6917.859,95.437,540.612,538.837,0.0
49734.0,STARLINK-3238,PAYLOAD,2023-04-20 15:44:15,15.08853763,0.000129,53.2183,200.8892,105.3315,254.782,4.7233e-05,4.64e-06,0.0,0 STARLINK-3238,1 49734U 21115L   23110.65573924  .00000464  00000-0  47233-4 0  9992,2 49734  53.2183 200.8892 0001290 105.3315 254.7820 15.08853763 76412,6917.838,95.437,540.596,538.811,0.0
49734.0,STARLINK-3238,PAYLOAD,2023-04-21 12:24:17,15.08834909,0.0001355,53.2164,197.0246,91.1038,269.0109,1.7921e-05,-3e-08,0.0,0 STARLINK-3238,1 49734U 21115L   23111.51687462 -.00000003  00000-0  17921-4 0  9992,2 49734  53.2164 197.0246 0001355  91.1038 269.0109 15.08834909 77654,6917.896,95.438,540.698,538.824,0.0
49734.0,STARLINK-3238,PAYLOAD,2023-04-21 17:10:26,15.08842034,0.0001364,53.2163,196.1312,98.4321,261.6826,5.9059e-05,6.52e-06,0.0,0 STARLINK-3238,1 49734U 21115L   23111.71558876  .00000652  00000-0  59059-4 0  9997,2 49734  53.2163 196.1312 0001364  98.4321 261.6826 15.08842034 77687,6917.874,95.437,540.683,538.796,0.0
49734.0,STARLINK-3238,PAYLOAD,2023-04-22 05:53:32,15.08834835,0.0001239,53.2164,193.7534,91.8253,268.2881,7.4273e-05,8.94e-06,0.0,0 STARLINK-3238,1 49734U 21115L   23112.24551300  .00000894  00000-0  74273-4 0  9994,2 49734  53.2164 193.7534 0001239  91.8253 268.2881 15.08834835 77762,6917.896,95.438,540.618,538.904,0.0
49734.0,STARLINK-3238,PAYLOAD,2023-04-22 21:47:24,15.08823569,7.32e-05,53.2165,190.78,132.8102,227.2951,-0.00017206,-3.024e-05,0.0,0 STARLINK-3238,1 49734U 21115L   23112.90792204 -.00003024  00000-0 -17206-3 0  9999,2 49734  53.2165 190.7800 0000732 132.8102 227.2951 15.08823569 76755,6917.931,95.439,540.302,539.289,0.0
49734.0,STARLINK-3238,PAYLOAD,2023-04-23 05:44:20,15.08820348,9.02e-05,53.2168,189.2916,111.9996,248.1092,-7.7039e-05,-1.513e-05,0.0,0 STARLINK-3238,1 49734U 21115L   23113.23912890 -.00001513  00000-0 -77039-4 0  9993,2 49734  53.2168 189.2916 0000902 111.9996 248.1092 15.08820348 77916,6917.94,95.439,540.429,539.181,0.0
49734.0,STARLINK-3238,PAYLOAD,2023-04-23 13:41:15,15.08831284,0.0001348,53.216,187.8035,86.2513,273.8633,1.339e-05,-7.5e-07,0.0,0 STARLINK-3238,1 49734U 21115L   23113.57032308 -.00000075  00000-0  13390-4 0  9998,2 49734  53.2160 187.8035 0001348  86.2513 273.8633 15.08831284 76857,6917.907,95.438,540.705,538.839,0.0
49734.0,STARLINK-3238,PAYLOAD,2023-04-23 20:02:47,15.08843171,0.0001211,53.2168,186.6141,102.0441,258.0687,0.00010438,1.374e-05,0.0,0 STARLINK-3238,1 49734U 21115L   23113.83527377  .00001374  00000-0  10438-3 0  9993,2 49734  53.2168 186.6141 0001211 102.0441 258.0687 15.08843171 76892,6917.871,95.437,540.573,538.898,0.0
49734.0,STARLINK-3238,PAYLOAD,2023-04-24 13:31:59,15.08882022,0.000122,53.216,183.3435,93.381,266.7322,0.00037878,5.752e-05,0.0,0 STARLINK-3238,1 49734U 21115L   23114.56388176  .00005752  00000-0  37878-3 0  9997,2 49734  53.2160 183.3435 0001220  93.3810 266.7322 15.08882022 78113,6917.752,95.435,540.461,538.773,0.0
49734.0,STARLINK-3238,PAYLOAD,2023-04-24 15:07:23,15.08878841,0.0001656,53.2141,183.0461,73.0222,287.0952,0.00071088,0.00011056,0.0,0 STARLINK-3238,1 49734U 21115L   23114.63013540  .00011056  00000-0  71088-3 0  9990,2 49734  53.2141 183.0461 0001656  73.0222 287.0952 15.08878841 78123,6917.762,95.435,540.772,538.481,0.0
49734.0,STARLINK-3238,PAYLOAD,2023-04-24 21:28:57,15.08829383,0.0001104,53.2153,181.8587,107.2358,252.8755,-0.00032559,-5.464e-05,0.0,0 STARLINK-3238,1 49734U 21115L   23114.89510980 -.00005464  00000-0 -32559-3 0  9996,2 49734  53.2153 181.8587 0001104 107.2358 252.8755 15.08829383 78161,6917.913,95.438,540.542,539.014,0.0
49734.0,STARLINK-3238,PAYLOAD,2023-04-25 10:12:03,15.08806271,0.0001214,53.2139,179.4782,115.3754,244.7364,-0.00089459,-0.00014484,0.0,0 STARLINK-3238,1 49734U 21115L   23115.42503939 -.00014484  00000-0 -89459-3 0  9995,2 49734  53.2139 179.4782 0001214 115.3754 244.7364 15.08806271 77130,6917.983,95.44,540.688,539.009,0.0
49734.0,STARLINK-3238,PAYLOAD,2023-04-26 13:13:38,15.08839962,0.0001114,53.2133,174.4251,125.9028,234.2067,0.0014575,0.00022984,0.0,0 STARLINK-3238,1 49734U 21115L   23116.55113829  .00022984  00000-0  14575-2 0  9993,2 49734  53.2133 174.4251 0001114 125.9028 234.2067 15.08839962 77306,6917.881,95.438,540.516,538.975,0.0
49734.0,STARLINK-3238,PAYLOAD,2023-04-26 21:10:33,15.08849694,0.000111,53.2133,172.9374,124.247,235.8628,0.0012768,0.00020096,0.0,0 STARLINK-3238,1 49734U 21115L   23116.88233763  .00020096  00000-0  12768-2 0  9993,2 49734  53.2133 172.9374 0001110 124.2470 235.8628 15.08849694 77352,6917.851,95.437,540.484,538.948,0.0
49734.0,STARLINK-3238,PAYLOAD,2023-04-27 09:53:38,15.08867055,0.0001126,53.2138,170.5578,126.2604,233.8493,0.0012265,0.000193,0.0,0 STARLINK-3238,1 49734U 21115L   23117.41225182  .00019300  00000-0  12265-2 0  9997,2 49734  53.2138 170.5578 0001126 126.2604 233.8493 15.08867055 77433,6917.798,95.436,540.442,538.884,0.0
49734.0,STARLINK-3238,PAYLOAD,2023-04-27 14:39:47,15.08872833,0.0001108,53.2139,169.6658,125.2669,234.8426,0.001199,0.00018863,0.0,0 STARLINK-3238,1 49734U 21115L   23117.61096828  .00018863  00000-0  11990-2 0  9999,2 49734  53.2139 169.6658 0001108 125.2669 234.8426 15.08872833 78575,6917.78,95.435,540.412,538.879,0.0
49734.0,STARLINK-3238,PAYLOAD,2023-04-28 06:33:38,15.08863319,0.0001273,53.2154,166.6929,111.7299,248.3829,0.00030761,4.614e-05,0.0,0 STARLINK-3238,1 49734U 21115L   23118.27336150  .00004614  00000-0  30761-3 0  9994,2 49734  53.2154 166.6929 0001273 111.7299 248.3829 15.08863319 78679,6917.809,95.436,540.555,538.793,0.0
49734.0,STARLINK-3238,PAYLOAD,2023-04-28 09:44:24,15.08865495,0.0001196,53.2158,166.0988,109.6849,250.4272,0.00037321,5.661e-05,0.0,0 STARLINK-3238,1 49734U 21115L   23118.40583937  .00005661  00000-0  37321-3 0  9998,2 49734  53.2158 166.0988 0001196 109.6849 250.4272 15.08865495 77585,6917.802,95.436,540.495,538.84,0.0
49734.0,STARLINK-3238,PAYLOAD,2023-04-29 03:13:38,15.08852647,0.0001138,53.2156,162.8272,103.0968,257.0151,5.632e-05,6.09e-06,0.0,0 STARLINK-3238,1 49734U 21115L   23119.13447659  .00000609  00000-0  56320-4 0  9997,2 49734  53.2156 162.8272 0001138 103.0968 257.0151 15.08852647 78809,6917.842,95.437,540.494,538.919,0.0
49734.0,STARLINK-3238,PAYLOAD,2023-04-29 09:35:11,15.08847698,0.0001176,53.2153,161.6381,116.5334,243.5779,-6.0222e-05,-1.246e-05,0.0,0 STARLINK-3238,1 49734U 21115L   23119.39943754 -.00001246  00000-0 -60222-4 0  9998,2 49734  53.2153 161.6381 0001176 116.5334 243.5779 15.08847698 77739,6917.857,95.437,540.535,538.908,0.0
49734.0,STARLINK-3238,PAYLOAD,2023-04-30 03:04:26,15.08842457,0.0001188,53.2161,158.3665,115.7388,244.3726,-3.4022e-05,-8.29e-06,0.0,0 STARLINK-3238,1 49734U 21115L   23120.12808067 -.00000829  00000-0 -34022-4 0  9993,2 49734  53.2161 158.3665 0001188 115.7388 244.3726 15.08842457 78953,6917.873,95.437,540.56,538.916,0.0
49734.0,STARLINK-3238,PAYLOAD,2023-04-30 09:25:58,15.08844359,0.0001208,53.2165,157.1774,114.7757,245.3361,-4.9811e-05,-1.081e-05,0.0,0 STARLINK-3238,1 49734U 21115L   23120.39303867 -.00001081  00000-0 -49811-4 0  9993,2 49734  53.2165 157.1774 0001208 114.7757 245.3361 15.08844359 77887,6917.867,95.437,540.568,538.896,0.0
49734.0,STARLINK-3238,PAYLOAD,2023-05-01 10:52:09,15.08832399,0.0001242,53.2164,152.4193,109.109,251.0036,2.4443e-05,1.01e-06,0.0,0 STARLINK-3238,1 49734U 21115L   23121.45288673  .00000101  00000-0  24443-4 0  9992,2 49734  53.2164 152.4193 0001242 109.1090 251.0036 15.08832399 79151,6917.904,95.438,540.628,538.909,0.0
49734.0,STARLINK-3238,PAYLOAD,2023-05-02 05:56:46,15.08840542,0.0001142,53.216,148.8503,106.2651,253.8467,8.8831e-05,1.126e-05,0.0,0 STARLINK-3238,1 49734U 21115L   23122.24776203  .00001126  00000-0  88831-4 0  9990,2 49734  53.2160 148.8503 0001142 106.2651 253.8467 15.08840542 79271,6917.879,95.438,540.534,538.954,0.0
49734.0,STARLINK-3238,PAYLOAD,2023-05-02 10:42:55,15.08843918,0.0001026,53.2154,147.9578,97.2498,262.861,0.0001091,1.449e-05,0.0,0 STARLINK-3238,1 49734U 21115L   23122.44647957  .00001449  00000-0  10910-3 0  9995,2 49734  53.2154 147.9578 0001026  97.2498 262.8610 15.08843918 78195,6917.868,95.437,540.443,539.024,0.0
